OBJECT_NAME,OBJECT_ID,EPOCH,MEAN_MOTION,ECCENTRICITY,INCLINATION,RA_OF_ASC_NODE,ARG_OF_PERICENTER,MEAN_ANOMALY,EPHEMERIS_TYPE,CLASSIFICATION_TYPE,NORAD_CAT_ID,ELEMENT_SET_NO,REV_AT_EPOCH,BSTAR,MEAN_MOTION_DOT,MEAN_MOTION_DDOT
IRIDIUM 106,2017-003A,2026-06-17T19:02:10.228416,14.34217724,.0001884,86.3962,88.3030,86.5569,273.5842,0,U,41917,999,49329,.103E-4,.49E-6,0
IRIDIUM 103,2017-003B,2026-06-17T18:43:54.296256,14.34217486,.0002182,86.3963,88.2080,76.9387,283.2052,0,U,41918,999,49331,-.26409E-5,.12E-6,0
IRIDIUM 109,2017-003C,2026-06-17T18:53:02.247648,14.34218219,.0002187,86.3963,88.2648,82.5301,277.6143,0,U,41919,999,49328,.62525E-4,.195E-5,0
IRIDIUM 102,2017-003D,2026-06-17T19:47:50.023392,14.34219207,.0002215,86.3960,88.1725,85.5779,274.5670,0,U,41920,999,49337,.47516E-4,.153E-5,0
IRIDIUM 105,2017-003E,2026-06-17T18:48:13.192128,14.34216569,.0002557,86.3967,56.6214,82.4786,277.6700,0,U,41921,999,49522,.52976E-4,.168E-5,0
IRIDIUM 104,2017-003F,2026-06-17T18:25:38.298432,14.34217665,.0002337,86.3962,88.2389,79.9817,280.1643,0,U,41922,999,49335,-.35314E-7,.2E-6,0
IRIDIUM 114,2017-003G,2026-06-17T18:34:46.272288,14.34217880,.0002318,86.3962,88.2195,80.8584,279.2874,0,U,41923,999,49333,.11834E-4,.53E-6,0
IRIDIUM 108,2017-003H,2026-06-17T17:35:02.161824,14.34219589,.0002245,86.3958,56.5323,86.3498,273.7955,0,U,41924,999,49518,.53828E-4,.171E-5,0
IRIDIUM 112,2017-003J,2026-06-17T18:16:30.355680,14.34217401,.0002327,86.3958,88.0668,83.3944,276.7516,0,U,41925,999,49335,.26665E-5,.27E-6,0
IRIDIUM 111,2017-003K,2026-06-17T19:38:43.049184,14.34218107,.0002243,86.3959,88.1135,82.7770,277.3681,0,U,41926,999,49334,.69636E-4,.215E-5,0
IRIDIUM 113,2017-039A,2026-06-17T19:09:51.194016,14.34217646,.000217,86.3967,321.9232,89.3047,270.8397,0,U,42803,999,47127,-.11729E-5,.16E-6,0
IRIDIUM 123,2017-039B,2026-06-17T11:47:14.847648,14.34217989,.00020064,86.3971,353.5099,86.0538,274.0887,0,U,42804,999,46999,.20906896E-4,.78E-6,0
IRIDIUM 120,2017-039C,2026-06-17T19:00:43.189056,14.34216756,.0002036,86.3959,321.7080,95.6914,264.4514,0,U,42805,999,47126,.64366E-4,.2E-5,0
IRIDIUM 115,2017-039D,2026-06-17T19:29:06.228096,14.43276457,.000201,86.4498,321.8285,91.3485,268.7946,0,U,42806,999,47435,.68458E-4,.25E-5,0
IRIDIUM 118,2017-039E,2026-06-17T12:32:54.789504,14.34216849,.00022135,86.3971,353.4948,89.7855,270.3594,0,U,42807,999,46999,.32326993E-4,.11E-5,0
IRIDIUM 117,2017-039F,2026-06-17T14:40:46.905600,14.34217480,.0002009,86.3967,353.4155,87.1767,272.9659,0,U,42808,999,47003,-.11642E-4,-.13E-6,0
IRIDIUM 126,2017-039G,2026-06-17T11:56:22.703136,14.34217748,.0002283,86.3971,353.5139,85.1765,274.9691,0,U,42809,999,46999,.547E-4,.173E-5,0
IRIDIUM 124,2017-039H,2026-06-17T19:33:38.604096,14.43278512,.0002189,86.4484,290.0963,94.8057,265.3394,0,U,42810,999,47520,.88654E-4,.318E-5,0
IRIDIUM 128,2017-039J,2026-06-17T15:03:58.680000,14.34217503,.0001899,86.3964,24.9659,88.7217,271.4196,0,U,42811,999,47004,-.11163E-4,-.11E-6,0
IRIDIUM 121,2017-039K,2026-06-17T12:23:46.894272,14.34216959,.0002035,86.3969,353.5341,91.5897,268.5532,0,U,42812,999,46987,-.44781307E-4,-.106E-5,0
IRIDIUM 133,2017-061A,2026-06-17T15:49:38.679744,14.34216946,.0001981,86.3966,25.0704,86.3509,273.7913,0,U,42955,999,45484,-.33386E-5,.1E-6,0
IRIDIUM 100,2017-061B,2026-06-17T15:40:30.683424,14.34217042,.0002157,86.3967,24.9919,87.1447,272.9995,0,U,42956,999,45484,.11688E-4,.53E-6,0
IRIDIUM 122,2017-061C,2026-06-17T14:54:50.712192,14.34217858,.000215,86.3967,25.0053,83.9949,276.1492,0,U,42957,999,45484,.95913E-5,.47E-6,0
IRIDIUM 129,2017-061D,2026-06-17T17:11:50.739936,14.34217567,.0002292,86.3966,25.0325,85.0332,275.1126,0,U,42958,999,45487,-.53421E-5,.5E-7,0
IRIDIUM 119,2017-061E,2026-06-17T14:45:42.649344,14.34218170,.0002212,86.3968,25.0708,84.0166,276.1281,0,U,42959,999,45487,.13742E-4,.58E-6,0
IRIDIUM 107,2017-061F,2026-06-17T15:13:06.697920,14.34217192,.0001942,86.3969,25.0841,82.0504,278.0912,0,U,42960,999,45488,.41168E-4,.135E-5,0
IRIDIUM 132,2017-061G,2026-06-17T15:22:14.726208,14.34217742,.0002161,86.3967,25.0610,85.2456,274.8987,0,U,42961,999,45488,.11282E-4,.51E-6,0
IRIDIUM 136,2017-061H,2026-06-17T16:07:55.348032,14.34219785,.0002184,86.3968,25.0543,88.5281,271.6165,0,U,42962,999,45490,.61936E-4,.193E-5,0
IRIDIUM 139,2017-061J,2026-06-17T16:17:02.692896,14.34217507,.000196,86.3969,25.1137,87.9153,272.2267,0,U,42963,999,45491,-.10387E-4,-.9E-7,0
IRIDIUM 125,2017-061K,2026-06-17T15:58:47.408736,14.34214742,.0002174,86.3972,25.1801,72.8489,287.2945,0,U,42964,999,45492,.72806E-4,.224E-5,0
IRIDIUM 135,2017-083A,2026-06-17T18:42:27.217152,14.34217309,.0002068,86.3960,321.7678,91.6098,268.5334,0,U,43070,999,44423,-.10383E-4,-.9E-7,0
