IRIDIUM 106             
1 41917U 17003A   26168.79317394  .00000049  00000+0  10300-4 0  9999
2 41917  86.3962  88.3030 0001884  86.5569 273.5842 14.34217724493293
IRIDIUM 103             
1 41918U 17003B   26168.78048954  .00000012  00000+0 -26409-5 0  9991
2 41918  86.3963  88.2080 0002182  76.9387 283.2052 14.34217486493311
IRIDIUM 109             
1 41919U 17003C   26168.78683157  .00000195  00000+0  62525-4 0  9991
2 41919  86.3963  88.2648 0002187  82.5301 277.6143 14.34218219493285
IRIDIUM 102             
1 41920U 17003D   26168.82488453  .00000153  00000+0  47516-4 0  9997
2 41920  86.3960  88.1725 0002215  85.5779 274.5670 14.34219207493372
IRIDIUM 105             
1 41921U 17003E   26168.78348602  .00000168  00000+0  52976-4 0  9996
2 41921  86.3967  56.6214 0002557  82.4786 277.6700 14.34216569495228
IRIDIUM 104             
1 41922U 17003F   26168.76780438  .00000020  00000+0 -35314-7 0  9990
2 41922  86.3962  88.2389 0002337  79.9817 280.1643 14.34217665493355
IRIDIUM 114             
1 41923U 17003G   26168.77414667  .00000053  00000+0  11834-4 0  9993
2 41923  86.3962  88.2195 0002318  80.8584 279.2874 14.34217880493334
IRIDIUM 108             
1 41924U 17003H   26168.73266391  .00000171  00000+0  53828-4 0  9999
2 41924  86.3958  56.5323 0002245  86.3498 273.7955 14.34219589495187
IRIDIUM 112             
1 41925U 17003J   26168.76146245  .00000027  00000+0  26665-5 0  9998
2 41925  86.3958  88.0668 0002327  83.3944 276.7516 14.34217401493358
IRIDIUM 111             
1 41926U 17003K   26168.81855381  .00000215  00000+0  69636-4 0  9996
2 41926  86.3959  88.1135 0002243  82.7770 277.3681 14.34218107493340
IRIDIUM 113             
1 42803U 17039A   26168.79850919  .00000016  00000+0 -11729-5 0  9990
2 42803  86.3967 321.9232 0002170  89.3047 270.8397 14.34217646471276
IRIDIUM 123             
1 42804U 17039B   26168.49114407  .00000078  00000+0  20907-4 0  9997
2 42804  86.3971 353.5099 0002006  86.0538 274.0887 14.34217989469997
IRIDIUM 120             
1 42805U 17039C   26168.79216654  .00000200  00000+0  64366-4 0  9992
2 42805  86.3959 321.7080 0002036  95.6914 264.4514 14.34216756471262
IRIDIUM 115             
1 42806U 17039D   26168.81187764  .00000250  00000+0  68458-4 0  9996
2 42806  86.4498 321.8285 0002010  91.3485 268.7946 14.43276457474351
IRIDIUM 118             
1 42807U 17039E   26168.52285636  .00000110  00000+0  32327-4 0  9993
2 42807  86.3971 353.4948 0002213  89.7855 270.3594 14.34216849469992
IRIDIUM 117             
1 42808U 17039F   26168.61165400 -.00000013  00000+0 -11642-4 0  9991
2 42808  86.3967 353.4155 0002009  87.1767 272.9659 14.34217480470034
IRIDIUM 126             
1 42809U 17039G   26168.49748499  .00000173  00000+0  54700-4 0  9990
2 42809  86.3971 353.5139 0002283  85.1765 274.9691 14.34217748469991
IRIDIUM 124             
1 42810U 17039H   26168.81503014  .00000318  00000+0  88654-4 0  9996
2 42810  86.4484 290.0963 0002189  94.8057 265.3394 14.43278512475200
IRIDIUM 128             
1 42811U 17039J   26168.62776250 -.00000011  00000+0 -11163-4 0  9993
2 42811  86.3964  24.9659 0001899  88.7217 271.4196 14.34217503470044
IRIDIUM 121             
1 42812U 17039K   26168.51651498 -.00000106  00000+0 -44781-4 0  9995
2 42812  86.3969 353.5341 0002035  91.5897 268.5532 14.34216959469872
IRIDIUM 133             
1 42955U 17061A   26168.65947546  .00000010  00000+0 -33386-5 0  9998
2 42955  86.3966  25.0704 0001981  86.3509 273.7913 14.34216946454840
IRIDIUM 100             
1 42956U 17061B   26168.65313291  .00000053  00000+0  11688-4 0  9999
2 42956  86.3967  24.9919 0002157  87.1447 272.9995 14.34217042454843
IRIDIUM 122             
1 42957U 17061C   26168.62142028  .00000047  00000+0  95913-5 0  9992
2 42957  86.3967  25.0053 0002150  83.9949 276.1492 14.34217858454842
IRIDIUM 129             
1 42958U 17061D   26168.71655949  .00000005  00000+0 -53421-5 0  9997
2 42958  86.3966  25.0325 0002292  85.0332 275.1126 14.34217567454873
IRIDIUM 119             
1 42959U 17061E   26168.61507696  .00000058  00000+0  13742-4 0  9990
2 42959  86.3968  25.0708 0002212  84.0166 276.1281 14.34218170454871
IRIDIUM 107             
1 42960U 17061F   26168.63410530  .00000135  00000+0  41168-4 0  9993
2 42960  86.3969  25.0841 0001942  82.0504 278.0912 14.34217192454881
IRIDIUM 132             
1 42961U 17061G   26168.64044822  .00000051  00000+0  11282-4 0  9993
2 42961  86.3967  25.0610 0002161  85.2456 274.8987 14.34217742454886
IRIDIUM 136             
1 42962U 17061H   26168.67216838  .00000193  00000+0  61936-4 0  9993
2 42962  86.3968  25.0543 0002184  88.5281 271.6165 14.34219785454905
IRIDIUM 139             
1 42963U 17061J   26168.67850339 -.00000009  00000+0 -10387-4 0  9996
2 42963  86.3969  25.1137 0001960  87.9153 272.2267 14.34217507454910
IRIDIUM 125             
1 42964U 17061K   26168.66582649  .00000224  00000+0  72806-4 0  9993
2 42964  86.3972  25.1801 0002174  72.8489 287.2945 14.34214742454924
IRIDIUM 135             
1 43070U 17083A   26168.77948168 -.00000009  00000+0 -10383-4 0  9995
2 43070  86.3960 321.7678 0002068  91.6098 268.5334 14.34217309444233
